STARLINK-1741           
1 46567U 20070AM  26009.83334490  .00115856  00000+0  21056-2 0  9999
2 46567  53.0489  42.8126 0007784 343.3910  26.0783 15.48660720  5922
STARLINK-1531           
1 46572U 20070AS  26009.44461634  .00114594  00000+0  22888-2 0  9995
2 46572  53.0605  65.6094 0008105  25.7511 334.3897 15.45938445290815
STARLINK-1677           
1 46576U 20070AW  26009.83334490  .00095210  00000+0  19489-2 0  9997
2 46576  53.0467  48.2765 0005974 330.6912 115.6692 15.45331054  5877
STARLINK-1683           
1 46578U 20070AY  26009.83334490  .00212064  00000+0  28008-2 0  9994
2 46578  53.0190   2.1793 0004416  53.9058 186.8049 15.57137682  5890
STARLINK-1705           
1 46579U 20070AZ  26009.83334490  .00632027  17654-3  16149-2 0  9990
2 46579  53.0323   7.2655 0007265  76.0621  62.2568 15.94752176  5962
STARLINK-1712           
1 46581U 20070BB  26009.83334490  .00226985  00000+0  23970-2 0  9998
2 46581  53.0454  15.3519 0012085  42.6356  93.1194 15.62882385  5913
STARLINK-1728           
1 46582U 20070BC  26009.83334490  .00079768  00000+0  19644-2 0  9997
2 46582  53.0476  46.2567 0006903 340.2669 342.4598 15.39890051  5854
STARLINK-1736           
1 46585U 20070BF  26009.83334490  .00105557  00000+0  17668-2 0  9990
2 46585  53.0486  42.2872 0008066 347.6653  56.6249 15.51038854  5888
STARLINK-1746           
1 46588U 20070BJ  26009.83334490  .00108120  00000+0  19317-2 0  9995
2 46588  53.0486  42.0991 0007546 342.1389 329.8436 15.49185454  5923
STARLINK-1716           
1 46672U 20073C   26009.83334490  .00150015  00000+0  28147-2 0  9993
2 46672  53.0488 126.0060 0011402 171.4361 195.1879 15.47559538  5727
STARLINK-1718           
1 46674U 20073E   26009.66771831  .00002183  00000+0  16543-3 0  9990
2 46674  53.0554 146.5754 0001192  85.3378 274.7748 15.06396645288237
STARLINK-1775           
1 46681U 20073M   26009.59890356  .00117556  00000+0  15888-2 0  9995
2 46681  53.0507 140.9852 0007925 211.3733 148.6806 15.56865692288306
STARLINK-1781           
1 46685U 20073R   26009.60186787  .00003349  00000+0  24362-3 0  9999
2 46685  53.0557 162.1448 0001335  92.4694 267.6448 15.06394502288008
STARLINK-1784           
1 46687U 20073T   26009.56272804  .00030730  00000+0  68427-3 0  9996
2 46687  53.0524 111.7822 0001629 359.7501   0.3503 15.43377719288716
STARLINK-1788           
1 46689U 20073V   26009.83334490  .00153483  00000+0  28389-2 0  9991
2 46689  53.0489 143.1544 0005203 187.3244 195.2479 15.48007832  5881
STARLINK-1789           
1 46690U 20073W   26009.83334490  .00216063  00000+0  16985-2 0  9996
2 46690  53.0440 101.2775 0001655   4.6420 270.6078 15.70319334  5965
