[{"OBJECT_NAME":"STARLINK-1741","OBJECT_ID":"2020-070AM","EPOCH":"2026-01-09T20:00:00.999360","MEAN_MOTION":15.4866072,"ECCENTRICITY":0.0007784,"INCLINATION":53.0489,"RA_OF_ASC_NODE":42.8126,"ARG_OF_PERICENTER":343.391,"MEAN_ANOMALY":26.0783,"EPHEMERIS_TYPE":0,"CLASSIFICATION_TYPE":"U","NORAD_CAT_ID":46567,"ELEMENT_SET_NO":999,"REV_AT_EPOCH":592,"BSTAR":0.0021056,"MEAN_MOTION_DOT":0.00115856,"MEAN_MOTION_DDOT":0},{"OBJECT_NAME":"STARLINK-1531","OBJECT_ID":"2020-070AS","EPOCH":"2026-01-09T10:40:14.851776","MEAN_MOTION":15.45938445,"ECCENTRICITY":0.0008105,"INCLINATION":53.0605,"RA_OF_ASC_NODE":65.6094,"ARG_OF_PERICENTER":25.7511,"MEAN_ANOMALY":334.3897,"EPHEMERIS_TYPE":0,"CLASSIFICATION_TYPE":"U","NORAD_CAT_ID":46572,"ELEMENT_SET_NO":999,"REV_AT_EPOCH":29081,"BSTAR":0.0022887888,"MEAN_MOTION_DOT":0.00114594,"MEAN_MOTION_DDOT":0},{"OBJECT_NAME":"STARLINK-1677","OBJECT_ID":"2020-070AW","EPOCH":"2026-01-09T20:00:00.999360","MEAN_MOTION":15.45331054,"ECCENTRICITY":0.0005974,"INCLINATION":53.0467,"RA_OF_ASC_NODE":48.2765,"ARG_OF_PERICENTER":330.6912,"MEAN_ANOMALY":115.6692,"EPHEMERIS_TYPE":0,"CLASSIFICATION_TYPE":"U","NORAD_CAT_ID":46576,"ELEMENT_SET_NO":999,"REV_AT_EPOCH":587,"BSTAR":0.0019489,"MEAN_MOTION_DOT":0.0009521,"MEAN_MOTION_DDOT":0},{"OBJECT_NAME":"STARLINK-1683","OBJECT_ID":"2020-070AY","EPOCH":"2026-01-09T20:00:00.999360","MEAN_MOTION":15.57137682,"ECCENTRICITY":0.0004416,"INCLINATION":53.019,"RA_OF_ASC_NODE":2.1793,"ARG_OF_PERICENTER":53.9058,"MEAN_ANOMALY":186.8049,"EPHEMERIS_TYPE":0,"CLASSIFICATION_TYPE":"U","NORAD_CAT_ID":46578,"ELEMENT_SET_NO":999,"REV_AT_EPOCH":589,"BSTAR":0.0028008,"MEAN_MOTION_DOT":0.00212064,"MEAN_MOTION_DDOT":0},{"OBJECT_NAME":"STARLINK-1705","OBJECT_ID":"2020-070AZ","EPOCH":"2026-01-09T20:00:00.999360","MEAN_MOTION":15.94752176,"ECCENTRICITY":0.0007265,"INCLINATION":53.0323,"RA_OF_ASC_NODE":7.2655,"ARG_OF_PERICENTER":76.0621,"MEAN_ANOMALY":62.2568,"EPHEMERIS_TYPE":0,"CLASSIFICATION_TYPE":"U","NORAD_CAT_ID":46579,"ELEMENT_SET_NO":999,"REV_AT_EPOCH":596,"BSTAR":0.0016149,"MEAN_MOTION_DOT":0.00632027,"MEAN_MOTION_DDOT":0.00017654},{"OBJECT_NAME":"STARLINK-1712","OBJECT_ID":"2020-070BB","EPOCH":"2026-01-09T20:00:00.999360","MEAN_MOTION":15.62882385,"ECCENTRICITY":0.0012085,"INCLINATION":53.0454,"RA_OF_ASC_NODE":15.3519,"ARG_OF_PERICENTER":42.6356,"MEAN_ANOMALY":93.1194,"EPHEMERIS_TYPE":0,"CLASSIFICATION_TYPE":"U","NORAD_CAT_ID":46581,"ELEMENT_SET_NO":999,"REV_AT_EPOCH":591,"BSTAR":0.002397,"MEAN_MOTION_DOT":0.00226985,"MEAN_MOTION_DDOT":0},{"OBJECT_NAME":"STARLINK-1728","OBJECT_ID":"2020-070BC","EPOCH":"2026-01-09T20:00:00.999360","MEAN_MOTION":15.39890051,"ECCENTRICITY":0.0006903,"INCLINATION":53.0476,"RA_OF_ASC_NODE":46.2567,"ARG_OF_PERICENTER":340.2669,"MEAN_ANOMALY":342.4598,"EPHEMERIS_TYPE":0,"CLASSIFICATION_TYPE":"U","NORAD_CAT_ID":46582,"ELEMENT_SET_NO":999,"REV_AT_EPOCH":585,"BSTAR":0.0019644,"MEAN_MOTION_DOT":0.00079768,"MEAN_MOTION_DDOT":0},{"OBJECT_NAME":"STARLINK-1736","OBJECT_ID":"2020-070BF","EPOCH":"2026-01-09T20:00:00.999360","MEAN_MOTION":15.51038854,"ECCENTRICITY":0.0008066,"INCLINATION":53.0486,"RA_OF_ASC_NODE":42.2872,"ARG_OF_PERICENTER":347.6653,"MEAN_ANOMALY":56.6249,"EPHEMERIS_TYPE":0,"CLASSIFICATION_TYPE":"U","NORAD_CAT_ID":46585,"ELEMENT_SET_NO":999,"REV_AT_EPOCH":588,"BSTAR":0.0017668,"MEAN_MOTION_DOT":0.00105557,"MEAN_MOTION_DDOT":0},{"OBJECT_NAME":"STARLINK-1746","OBJECT_ID":"2020-070BJ","EPOCH":"2026-01-09T20:00:00.999360","MEAN_MOTION":15.49185454,"ECCENTRICITY":0.0007546,"INCLINATION":53.0486,"RA_OF_ASC_NODE":42.0991,"ARG_OF_PERICENTER":342.1389,"MEAN_ANOMALY":329.8436,"EPHEMERIS_TYPE":0,"CLASSIFICATION_TYPE":"U","NORAD_CAT_ID":46588,"ELEMENT_SET_NO":999,"REV_AT_EPOCH":592,"BSTAR":0.0019317,"MEAN_MOTION_DOT":0.0010812,"MEAN_MOTION_DDOT":0},{"OBJECT_NAME":"STARLINK-1716","OBJECT_ID":"2020-073C","EPOCH":"2026-01-09T20:00:00.999360","MEAN_MOTION":15.47559538,"ECCENTRICITY":0.0011402,"INCLINATION":53.0488,"RA_OF_ASC_NODE":126.006,"ARG_OF_PERICENTER":171.4361,"MEAN_ANOMALY":195.1879,"EPHEMERIS_TYPE":0,"CLASSIFICATION_TYPE":"U","NORAD_CAT_ID":46672,"ELEMENT_SET_NO":999,"REV_AT_EPOCH":572,"BSTAR":0.0028147,"MEAN_MOTION_DOT":0.00150015,"MEAN_MOTION_DDOT":0},{"OBJECT_NAME":"STARLINK-1718","OBJECT_ID":"2020-073E","EPOCH":"2026-01-09T16:01:30.861984","MEAN_MOTION":15.06396645,"ECCENTRICITY":0.00011926,"INCLINATION":53.0554,"RA_OF_ASC_NODE":146.5754,"ARG_OF_PERICENTER":85.3378,"MEAN_ANOMALY":274.7748,"EPHEMERIS_TYPE":0,"CLASSIFICATION_TYPE":"U","NORAD_CAT_ID":46674,"ELEMENT_SET_NO":999,"REV_AT_EPOCH":28823,"BSTAR":0.00016543036,"MEAN_MOTION_DOT":2.183e-5,"MEAN_MOTION_DDOT":0},{"OBJECT_NAME":"STARLINK-1775","OBJECT_ID":"2020-073M","EPOCH":"2026-01-09T14:22:25.267584","MEAN_MOTION":15.56865692,"ECCENTRICITY":0.00079255,"INCLINATION":53.0507,"RA_OF_ASC_NODE":140.9852,"ARG_OF_PERICENTER":211.3733,"MEAN_ANOMALY":148.6806,"EPHEMERIS_TYPE":0,"CLASSIFICATION_TYPE":"U","NORAD_CAT_ID":46681,"ELEMENT_SET_NO":999,"REV_AT_EPOCH":28830,"BSTAR":0.0015887551,"MEAN_MOTION_DOT":0.00117556,"MEAN_MOTION_DDOT":0},{"OBJECT_NAME":"STARLINK-1781","OBJECT_ID":"2020-073R","EPOCH":"2026-01-09T14:26:41.383968","MEAN_MOTION":15.06394502,"ECCENTRICITY":0.00013358,"INCLINATION":53.0557,"RA_OF_ASC_NODE":162.1448,"ARG_OF_PERICENTER":92.4694,"MEAN_ANOMALY":267.6448,"EPHEMERIS_TYPE":0,"CLASSIFICATION_TYPE":"U","NORAD_CAT_ID":46685,"ELEMENT_SET_NO":999,"REV_AT_EPOCH":28800,"BSTAR":0.00024361913,"MEAN_MOTION_DOT":3.349e-5,"MEAN_MOTION_DDOT":0},{"OBJECT_NAME":"STARLINK-1784","OBJECT_ID":"2020-073T","EPOCH":"2026-01-09T13:30:19.702656","MEAN_MOTION":15.43377719,"ECCENTRICITY":0.00016294,"INCLINATION":53.0524,"RA_OF_ASC_NODE":111.7822,"ARG_OF_PERICENTER":359.7501,"MEAN_ANOMALY":0.3503,"EPHEMERIS_TYPE":0,"CLASSIFICATION_TYPE":"U","NORAD_CAT_ID":46687,"ELEMENT_SET_NO":999,"REV_AT_EPOCH":28871,"BSTAR":0.00068427093,"MEAN_MOTION_DOT":0.0003073,"MEAN_MOTION_DDOT":0},{"OBJECT_NAME":"STARLINK-1788","OBJECT_ID":"2020-073V","EPOCH":"2026-01-09T20:00:00.999360","MEAN_MOTION":15.48007832,"ECCENTRICITY":0.0005203,"INCLINATION":53.0489,"RA_OF_ASC_NODE":143.1544,"ARG_OF_PERICENTER":187.3244,"MEAN_ANOMALY":195.2479,"EPHEMERIS_TYPE":0,"CLASSIFICATION_TYPE":"U","NORAD_CAT_ID":46689,"ELEMENT_SET_NO":999,"REV_AT_EPOCH":588,"BSTAR":0.0028389,"MEAN_MOTION_DOT":0.00153483,"MEAN_MOTION_DDOT":0},{"OBJECT_NAME":"STARLINK-1789","OBJECT_ID":"2020-073W","EPOCH":"2026-01-09T20:00:00.999360","MEAN_MOTION":15.70319334,"ECCENTRICITY":0.0001655,"INCLINATION":53.044,"RA_OF_ASC_NODE":101.2775,"ARG_OF_PERICENTER":4.642,"MEAN_ANOMALY":270.6078,"EPHEMERIS_TYPE":0,"CLASSIFICATION_TYPE":"U","NORAD_CAT_ID":46690,"ELEMENT_SET_NO":999,"REV_AT_EPOCH":596,"BSTAR":0.0016985,"MEAN_MOTION_DOT":0.00216063,"MEAN_MOTION_DDOT":0}]
